ONEWEB-0080             
1 45426U 20020C   24287.82983984  .00000616  00000+0  17019-2 0  9991
2 45426  87.8917 142.8511 0002024  81.4678 278.6679 13.11418980222576
ONEWEB-0090             
1 45427U 20020D   24287.84679217 -.00000183  00000+0 -55169-3 0  9995
2 45427  87.8922 142.8355 0001647  80.3746 279.7568 13.11412690222541
ONEWEB-0061             
1 45428U 20020E   24287.87886944 -.00000057  00000+0 -19682-3 0  9996
2 45428  87.8919 142.8228 0001666  80.6092 279.5224 13.11420872222509
ONEWEB-0081             
1 45429U 20020F   24287.86034653 -.00000766  00000+0 -21971-2 0  9998
2 45429  87.8921 142.8448 0001653  88.8824 271.2494 13.11415810222612
ONEWEB-0069             
1 45430U 20020G   24287.85017980 -.00000276  00000+0 -81555-3 0  9994
2 45430  87.8919 142.8359 0001700  78.8918 281.2401 13.11413166222541
ONEWEB-0031             
1 45431U 20020H   24287.66877152  .00000627  00000+0  17334-2 0  9990
2 45431  87.8926 142.8875 0001611  78.6533 281.4776 13.11419473222505
ONEWEB-0027             
1 45432U 20020J   24287.79275261  .00000092  00000+0  20454-3 0  9992
2 45432  87.9083 127.6473 0001591  71.0702 289.0602 13.17649527225841
ONEWEB-0064             
1 45433U 20020K   24287.89596030  .00000651  00000+0  18002-2 0  9990
2 45433  87.8921 142.8463 0001719  74.2823 285.8495 13.11416715222566
